COSMOS 2251 DEB         
1 33762U 93036K   17345.89836764 -.00000011  00000-0  54407-5 0  9991
2 33762  74.0422 248.8733 0016390 305.6822 127.1551 14.32933644461767
